ORBCOMM FM20            
1 25416U 98046D   24273.91038110  .00003132  00000+0  11181-2 0  9998
2 25416  44.9954 332.8276 0002009 263.3920  96.6698 14.35903621366836
ORBCOMM FM16            
1 25417U 98046E   24273.83083652  .00004771  00000+0  16368-2 0  9993
2 25417  44.9947 327.7849 0001790  38.7209 321.3766 14.37135002366777
ORBCOMM FM14            
1 25419U 98046G   24273.61243689  .00003859  00000+0  13350-2 0  9993
2 25419  44.9968 332.1157 0001186 334.2716  25.8073 14.37057315366700
ORBCOMM FM13            
1 25420U 98046H   24273.87534762  .00003820  00000+0  13457-2 0  9994
2 25420  44.9985 336.6195 0002843  24.6383 335.4600 14.36180075365796
ORBCOMM FM22            
1 25476U 98053B   24273.82543755  .00004530  00000+0  15705-2 0  9997
2 25476  45.0074  58.0515 0001348 315.8310  44.2430 14.36687848359804
ORBCOMM FM23            
1 25477U 98053C   24274.13863014  .00004350  00000+0  15287-2 0  9991
2 25477  45.0081  62.3118 0000800 296.5209  63.5556 14.36072069360307
