<?xml version="1.0" encoding="UTF-8"?>
<ndm xmlns:xsi="http://www.w3.org/2001/XMLSchema-instance" xsi:noNamespaceSchemaLocation="https://sanaregistry.org/r/ndmxml_unqualified/ndmxml-2.0.0-master-2.0.xsd">
<omm id="CCSDS_OMM_VERS" version="2.0">
<header><CREATION_DATE/><ORIGINATOR/></header><body><segment><metadata><OBJECT_NAME>ORBCOMM FM20</OBJECT_NAME><OBJECT_ID>1998-046D</OBJECT_ID><CENTER_NAME>EARTH</CENTER_NAME><REF_FRAME>TEME</REF_FRAME><TIME_SYSTEM>UTC</TIME_SYSTEM><MEAN_ELEMENT_THEORY>SGP4</MEAN_ELEMENT_THEORY></metadata><data><meanElements><EPOCH>2024-09-29T21:50:56.927040</EPOCH><MEAN_MOTION>14.35903621</MEAN_MOTION><ECCENTRICITY>.0002009</ECCENTRICITY><INCLINATION>44.9954</INCLINATION><RA_OF_ASC_NODE>332.8276</RA_OF_ASC_NODE><ARG_OF_PERICENTER>263.3920</ARG_OF_PERICENTER><MEAN_ANOMALY>96.6698</MEAN_ANOMALY></meanElements><tleParameters><EPHEMERIS_TYPE>0</EPHEMERIS_TYPE><CLASSIFICATION_TYPE>U</CLASSIFICATION_TYPE><NORAD_CAT_ID>25416</NORAD_CAT_ID><ELEMENT_SET_NO>999</ELEMENT_SET_NO><REV_AT_EPOCH>36683</REV_AT_EPOCH><BSTAR>.11181E-2</BSTAR><MEAN_MOTION_DOT>.3132E-4</MEAN_MOTION_DOT><MEAN_MOTION_DDOT>0</MEAN_MOTION_DDOT></tleParameters></data></segment></body></omm>
<omm id="CCSDS_OMM_VERS" version="2.0">
<header><CREATION_DATE/><ORIGINATOR/></header><body><segment><metadata><OBJECT_NAME>ORBCOMM FM16</OBJECT_NAME><OBJECT_ID>1998-046E</OBJECT_ID><CENTER_NAME>EARTH</CENTER_NAME><REF_FRAME>TEME</REF_FRAME><TIME_SYSTEM>UTC</TIME_SYSTEM><MEAN_ELEMENT_THEORY>SGP4</MEAN_ELEMENT_THEORY></metadata><data><meanElements><EPOCH>2024-09-29T19:56:24.275328</EPOCH><MEAN_MOTION>14.37135002</MEAN_MOTION><ECCENTRICITY>.000179</ECCENTRICITY><INCLINATION>44.9947</INCLINATION><RA_OF_ASC_NODE>327.7849</RA_OF_ASC_NODE><ARG_OF_PERICENTER>38.7209</ARG_OF_PERICENTER><MEAN_ANOMALY>321.3766</MEAN_ANOMALY></meanElements><tleParameters><EPHEMERIS_TYPE>0</EPHEMERIS_TYPE><CLASSIFICATION_TYPE>U</CLASSIFICATION_TYPE><NORAD_CAT_ID>25417</NORAD_CAT_ID><ELEMENT_SET_NO>999</ELEMENT_SET_NO><REV_AT_EPOCH>36677</REV_AT_EPOCH><BSTAR>.16368E-2</BSTAR><MEAN_MOTION_DOT>.4771E-4</MEAN_MOTION_DOT><MEAN_MOTION_DDOT>0</MEAN_MOTION_DDOT></tleParameters></data></segment></body></omm>
<omm id="CCSDS_OMM_VERS" version="2.0">
<header><CREATION_DATE/><ORIGINATOR/></header><body><segment><metadata><OBJECT_NAME>ORBCOMM FM14</OBJECT_NAME><OBJECT_ID>1998-046G</OBJECT_ID><CENTER_NAME>EARTH</CENTER_NAME><REF_FRAME>TEME</REF_FRAME><TIME_SYSTEM>UTC</TIME_SYSTEM><MEAN_ELEMENT_THEORY>SGP4</MEAN_ELEMENT_THEORY></metadata><data><meanElements><EPOCH>2024-09-29T14:41:54.547296</EPOCH><MEAN_MOTION>14.37057315</MEAN_MOTION><ECCENTRICITY>.0001186</ECCENTRICITY><INCLINATION>44.9968</INCLINATION><RA_OF_ASC_NODE>332.1157</RA_OF_ASC_NODE><ARG_OF_PERICENTER>334.2716</ARG_OF_PERICENTER><MEAN_ANOMALY>25.8073</MEAN_ANOMALY></meanElements><tleParameters><EPHEMERIS_TYPE>0</EPHEMERIS_TYPE><CLASSIFICATION_TYPE>U</CLASSIFICATION_TYPE><NORAD_CAT_ID>25419</NORAD_CAT_ID><ELEMENT_SET_NO>999</ELEMENT_SET_NO><REV_AT_EPOCH>36670</REV_AT_EPOCH><BSTAR>.1335E-2</BSTAR><MEAN_MOTION_DOT>.3859E-4</MEAN_MOTION_DOT><MEAN_MOTION_DDOT>0</MEAN_MOTION_DDOT></tleParameters></data></segment></body></omm>
<omm id="CCSDS_OMM_VERS" version="2.0">
<header><CREATION_DATE/><ORIGINATOR/></header><body><segment><metadata><OBJECT_NAME>ORBCOMM FM13</OBJECT_NAME><OBJECT_ID>1998-046H</OBJECT_ID><CENTER_NAME>EARTH</CENTER_NAME><REF_FRAME>TEME</REF_FRAME><TIME_SYSTEM>UTC</TIME_SYSTEM><MEAN_ELEMENT_THEORY>SGP4</MEAN_ELEMENT_THEORY></metadata><data><meanElements><EPOCH>2024-09-29T21:00:30.034368</EPOCH><MEAN_MOTION>14.36180075</MEAN_MOTION><ECCENTRICITY>.0002843</ECCENTRICITY><INCLINATION>44.9985</INCLINATION><RA_OF_ASC_NODE>336.6195</RA_OF_ASC_NODE><ARG_OF_PERICENTER>24.6383</ARG_OF_PERICENTER><MEAN_ANOMALY>335.4600</MEAN_ANOMALY></meanElements><tleParameters><EPHEMERIS_TYPE>0</EPHEMERIS_TYPE><CLASSIFICATION_TYPE>U</CLASSIFICATION_TYPE><NORAD_CAT_ID>25420</NORAD_CAT_ID><ELEMENT_SET_NO>999</ELEMENT_SET_NO><REV_AT_EPOCH>36579</REV_AT_EPOCH><BSTAR>.13457E-2</BSTAR><MEAN_MOTION_DOT>.382E-4</MEAN_MOTION_DOT><MEAN_MOTION_DDOT>0</MEAN_MOTION_DDOT></tleParameters></data></segment></body></omm>
<omm id="CCSDS_OMM_VERS" version="2.0">
<header><CREATION_DATE/><ORIGINATOR/></header><body><segment><metadata><OBJECT_NAME>ORBCOMM FM22</OBJECT_NAME><OBJECT_ID>1998-053B</OBJECT_ID><CENTER_NAME>EARTH</CENTER_NAME><REF_FRAME>TEME</REF_FRAME><TIME_SYSTEM>UTC</TIME_SYSTEM><MEAN_ELEMENT_THEORY>SGP4</MEAN_ELEMENT_THEORY></metadata><data><meanElements><EPOCH>2024-09-29T19:48:37.804320</EPOCH><MEAN_MOTION>14.36687848</MEAN_MOTION><ECCENTRICITY>.0001348</ECCENTRICITY><INCLINATION>45.0074</INCLINATION><RA_OF_ASC_NODE>58.0515</RA_OF_ASC_NODE><ARG_OF_PERICENTER>315.8310</ARG_OF_PERICENTER><MEAN_ANOMALY>44.2430</MEAN_ANOMALY></meanElements><tleParameters><EPHEMERIS_TYPE>0</EPHEMERIS_TYPE><CLASSIFICATION_TYPE>U</CLASSIFICATION_TYPE><NORAD_CAT_ID>25476</NORAD_CAT_ID><ELEMENT_SET_NO>999</ELEMENT_SET_NO><REV_AT_EPOCH>35980</REV_AT_EPOCH><BSTAR>.15705E-2</BSTAR><MEAN_MOTION_DOT>.453E-4</MEAN_MOTION_DOT><MEAN_MOTION_DDOT>0</MEAN_MOTION_DDOT></tleParameters></data></segment></body></omm>
<omm id="CCSDS_OMM_VERS" version="2.0">
<header><CREATION_DATE/><ORIGINATOR/></header><body><segment><metadata><OBJECT_NAME>ORBCOMM FM23</OBJECT_NAME><OBJECT_ID>1998-053C</OBJECT_ID><CENTER_NAME>EARTH</CENTER_NAME><REF_FRAME>TEME</REF_FRAME><TIME_SYSTEM>UTC</TIME_SYSTEM><MEAN_ELEMENT_THEORY>SGP4</MEAN_ELEMENT_THEORY></metadata><data><meanElements><EPOCH>2024-09-30T03:19:37.644096</EPOCH><MEAN_MOTION>14.36072069</MEAN_MOTION><ECCENTRICITY>.00008</ECCENTRICITY><INCLINATION>45.0081</INCLINATION><RA_OF_ASC_NODE>62.3118</RA_OF_ASC_NODE><ARG_OF_PERICENTER>296.5209</ARG_OF_PERICENTER><MEAN_ANOMALY>63.5556</MEAN_ANOMALY></meanElements><tleParameters><EPHEMERIS_TYPE>0</EPHEMERIS_TYPE><CLASSIFICATION_TYPE>U</CLASSIFICATION_TYPE><NORAD_CAT_ID>25477</NORAD_CAT_ID><ELEMENT_SET_NO>999</ELEMENT_SET_NO><REV_AT_EPOCH>36030</REV_AT_EPOCH><BSTAR>.15287E-2</BSTAR><MEAN_MOTION_DOT>.435E-4</MEAN_MOTION_DOT><MEAN_MOTION_DDOT>0</MEAN_MOTION_DDOT></tleParameters></data></segment></body></omm>

</ndm>
